ONEWEB-0620             
1 55161U 23004X   24283.11809001 -.00000214  00000+0 -63834-3 0  9991
2 55161  87.8931 143.8198 0001702  62.3237 297.8064 13.11418763 85085
ONEWEB-0621             
1 55162U 23004Y   24282.91632276  .00000619  00000+0  17097-2 0  9993
2 55162  87.8925 143.8255 0001316  84.2832 275.8446 13.11418988 85032
ONEWEB-0622             
1 55163U 23004Z   24283.15029569  .00000696  00000+0  19270-2 0  9996
2 55163  87.8922 143.7972 0001325  46.4789 313.6448 13.11418535 85060
ONEWEB-0623             
1 55164U 23004AA  24282.87207904  .00000094  00000+0  20797-3 0  9995
2 55164  87.9095 128.6667 0000909  63.5835 296.5390 13.17649839 86420
ONEWEB-0624             
1 55165U 23004AB  24282.81731066  .00000261  00000+0  69065-3 0  9998
2 55165  87.8850 113.4109 0001474  84.5542 275.5754 13.12446112 87200
ONEWEB-0625             
1 55166U 23004AC  24282.86196478  .00000232  00000+0  56417-3 0  9991
2 55166  87.9092 128.6675 0001804  88.9079 271.2259 13.17651959 86413
ONEWEB-0626             
1 55167U 23004AD  24282.85183306  .00000066  00000+0  13678-3 0  9994
2 55167  87.9093 128.6692 0002035  73.0076 287.1279 13.17647795 86414
ONEWEB-0627             
1 55168U 23004AE  24283.14377454  .00000048  00000+0  90333-4 0  9991
2 55168  87.9094 128.6124 0001224  64.3378 295.7880 13.17652374 86459
